{
  "type": "FeatureCollection",
  "features": [
    {
      "type": "Feature",
      "properties": {
        "norad_id": 29790,
        "name": "FENGYUN 1C DEB",
        "group": "fengyun-1c-debris",
        "lat": 54.45674409066434,
        "lon": -41.84242241044764,
        "alt_km": 824.8315495849811,
        "timestamp": "2025-12-03T15:48:03.343079+00:00",
        "meta_object_name": "FENGYUN 1C DEB",
        "meta_object_id": "1999-025CG",
        "meta_epoch": "2025-12-03T05:28:44.473728",
        "meta_mean_motion": 14.32244391,
        "meta_eccentricity": 0.00760985,
        "meta_inclination": 99.1469,
        "meta_ra_of_asc_node": 330.7376,
        "meta_arg_of_pericenter": 204.2013,
        "meta_mean_anomaly": 155.5587,
        "meta_ephemeris_type": 0,
        "meta_classification_type": "U",
        "meta_norad_cat_id": 29790,
        "meta_element_set_no": 999,
        "meta_rev_at_epoch": 98389,
        "meta_bstar": 0.00043591031,
        "meta_mean_motion_dot": 1.165e-05,
        "meta_mean_motion_ddot": 0,
        "tle_line1": "1 29790U 99025CG  25337.22829252  .00001165  00000+0  43591-3 0  9991",
        "tle_line2": "2 29790  99.1469 330.7376 0076098 204.2013 155.5587 14.32244391983894"
      },
      "geometry": {
        "type": "Point",
        "coordinates": [
          -41.84242241044764,
          54.45674409066434
        ]
      }
    },
    {
      "type": "Feature",
      "properties": {
        "norad_id": 29791,
        "name": "FENGYUN 1C DEB",
        "group": "fengyun-1c-debris",
        "lat": -40.54152240020527,
        "lon": 149.60082645343587,
        "alt_km": 725.8564140014332,
        "timestamp": "2025-12-03T15:48:03.343088+00:00",
        "meta_object_name": "FENGYUN 1C DEB",
        "meta_object_id": "1999-025CH",
        "meta_epoch": "2025-12-03T06:37:30.829728",
        "meta_mean_motion": 14.58023836,
        "meta_eccentricity": 0.00416803,
        "meta_inclination": 99.0358,
        "meta_ra_of_asc_node": 337.0086,
        "meta_arg_of_pericenter": 89.8691,
        "meta_mean_anomaly": 285.2391,
        "meta_ephemeris_type": 0,
        "meta_classification_type": "U",
        "meta_norad_cat_id": 29791,
        "meta_element_set_no": 999,
        "meta_rev_at_epoch": 98708,
        "meta_bstar": 0.0020262005,
        "meta_mean_motion_dot": 9.382e-05,
        "meta_mean_motion_ddot": 0,
        "tle_line1": "1 29791U 99025CH  25337.27605127  .00009382  00000+0  20262-2 0  9998",
        "tle_line2": "2 29791  99.0358 337.0086 0041680  89.8691 285.2391 14.58023836987083"
      },
      "geometry": {
        "type": "Point",
        "coordinates": [
          149.60082645343587,
          -40.54152240020527
        ]
      }
    },
    {
      "type": "Feature",
      "properties": {
        "norad_id": 29792,
        "name": "FENGYUN 1C DEB",
        "group": "fengyun-1c-debris",
        "lat": -26.090944246401044,
        "lon": -155.94032166451836,
        "alt_km": 875.8377614065303,
        "timestamp": "2025-12-03T15:48:03.343097+00:00",
        "meta_object_name": "FENGYUN 1C DEB",
        "meta_object_id": "1999-025CJ",
        "meta_epoch": "2025-12-03T02:57:14.874048",
        "meta_mean_motion": 14.15080021,
        "meta_eccentricity": 0.00486415,
        "meta_inclination": 98.7588,
        "meta_ra_of_asc_node": 27.864,
        "meta_arg_of_pericenter": 64.2691,
        "meta_mean_anomaly": 296.3493,
        "meta_ephemeris_type": 0,
        "meta_classification_type": "U",
        "meta_norad_cat_id": 29792,
        "meta_element_set_no": 999,
        "meta_rev_at_epoch": 96803,
        "meta_bstar": 0.0016547588,
        "meta_mean_motion_dot": 3.202e-05,
        "meta_mean_motion_ddot": 0,
        "tle_line1": "1 29792U 99025CJ  25337.12308882  .00003202  00000+0  16548-2 0  9998",
        "tle_line2": "2 29792  98.7588  27.8640 0048641  64.2691 296.3493 14.15080021968038"
      },
      "geometry": {
        "type": "Point",
        "coordinates": [
          -155.94032166451836,
          -26.090944246401044
        ]
      }
    },
    {
      "type": "Feature",
      "properties": {
        "norad_id": 29793,
        "name": "FENGYUN 1C DEB",
        "group": "fengyun-1c-debris",
        "lat": -74.43622652525553,
        "lon": -170.95392187020377,
        "alt_km": 879.3108708565824,
        "timestamp": "2025-12-03T15:48:03.343106+00:00",
        "meta_object_name": "FENGYUN 1C DEB",
        "meta_object_id": "1999-025CK",
        "meta_epoch": "2025-12-02T11:16:28.405344",
        "meta_mean_motion": 14.010291,
        "meta_eccentricity": 0.01442563,
        "meta_inclination": 98.3558,
        "meta_ra_of_asc_node": 156.1091,
        "meta_arg_of_pericenter": 7.3697,
        "meta_mean_anomaly": 45.8655,
        "meta_ephemeris_type": 0,
        "meta_classification_type": "U",
        "meta_norad_cat_id": 29793,
        "meta_element_set_no": 999,
        "meta_rev_at_epoch": 96005,
        "meta_bstar": 0.0010986673,
        "meta_mean_motion_dot": 1.763e-05,
        "meta_mean_motion_ddot": 0,
        "tle_line1": "1 29793U 99025CK  25336.46977321  .00001763  00000+0  10987-2 0  9996",
        "tle_line2": "2 29793  98.3558 156.1091 0144256   7.3697  45.8655 14.01029100960058"
      },
      "geometry": {
        "type": "Point",
        "coordinates": [
          -170.95392187020377,
          -74.43622652525553
        ]
      }
    },
    {
      "type": "Feature",
      "properties": {
        "norad_id": 29794,
        "name": "FENGYUN 1C DEB",
        "group": "fengyun-1c-debris",
        "lat": -26.28912962005186,
        "lon": 141.18722629733938,
        "alt_km": 872.6690800479291,
        "timestamp": "2025-12-03T15:48:03.343116+00:00",
        "meta_object_name": "FENGYUN 1C DEB",
        "meta_object_id": "1999-025CL",
        "meta_epoch": "2025-12-03T04:14:52.763712",
        "meta_mean_motion": 14.0896601,
        "meta_eccentricity": 0.01574888,
        "meta_inclination": 98.1995,
        "meta_ra_of_asc_node": 136.6645,
        "meta_arg_of_pericenter": 67.884,
        "meta_mean_anomaly": 347.1728,
        "meta_ephemeris_type": 0,
        "meta_classification_type": "U",
        "meta_norad_cat_id": 29794,
        "meta_element_set_no": 999,
        "meta_rev_at_epoch": 96713,
        "meta_bstar": 0.00080438058,
        "meta_mean_motion_dot": 1.524e-05,
        "meta_mean_motion_ddot": 0,
        "tle_line1": "1 29794U 99025CL  25337.17699958  .00001524  00000+0  80438-3 0  9997",
        "tle_line2": "2 29794  98.1995 136.6645 0157488  67.8840 347.1728 14.08966010967134"
      },
      "geometry": {
        "type": "Point",
        "coordinates": [
          141.18722629733938,
          -26.28912962005186
        ]
      }
    },
    {
      "type": "Feature",
      "properties": {
        "norad_id": 29795,
        "name": "FENGYUN 1C DEB",
        "group": "fengyun-1c-debris",
        "lat": -50.66530424679439,
        "lon": -83.57942899286749,
        "alt_km": 896.6746682629346,
        "timestamp": "2025-12-03T15:48:03.343125+00:00",
        "meta_object_name": "FENGYUN 1C DEB",
        "meta_object_id": "1999-025CM",
        "meta_epoch": "2025-12-03T08:06:18.174240",
        "meta_mean_motion": 13.92902139,
        "meta_eccentricity": 0.01110948,
        "meta_inclination": 98.87,
        "meta_ra_of_asc_node": 107.0982,
        "meta_arg_of_pericenter": 302.2153,
        "meta_mean_anomaly": 123.3569,
        "meta_ephemeris_type": 0,
        "meta_classification_type": "U",
        "meta_norad_cat_id": 29795,
        "meta_element_set_no": 999,
        "meta_rev_at_epoch": 95934,
        "meta_bstar": 0.00016119484,
        "meta_mean_motion_dot": 1.77e-06,
        "meta_mean_motion_ddot": 0,
        "tle_line1": "1 29795U 99025CM  25337.33771035  .00000177  00000+0  16119-3 0  9991",
        "tle_line2": "2 29795  98.8700 107.0982 0111094 302.2153 123.3569 13.92902139959343"
      },
      "geometry": {
        "type": "Point",
        "coordinates": [
          -83.57942899286749,
          -50.66530424679439
        ]
      }
    },
    {
      "type": "Feature",
      "properties": {
        "norad_id": 29796,
        "name": "FENGYUN 1C DEB",
        "group": "fengyun-1c-debris",
        "lat": -56.54948186801365,
        "lon": 43.295807470248704,
        "alt_km": 821.6003161882554,
        "timestamp": "2025-12-03T15:48:03.343134+00:00",
        "meta_object_name": "FENGYUN 1C DEB",
        "meta_object_id": "1999-025CN",
        "meta_epoch": "2025-12-03T02:43:25.269888",
        "meta_mean_motion": 14.12298925,
        "meta_eccentricity": 0.00516317,
        "meta_inclination": 98.8658,
        "meta_ra_of_asc_node": 29.0911,
        "meta_arg_of_pericenter": 295.5759,
        "meta_mean_anomaly": 117.9862,
        "meta_ephemeris_type": 0,
        "meta_classification_type": "U",
        "meta_norad_cat_id": 29796,
        "meta_element_set_no": 999,
        "meta_rev_at_epoch": 96925,
        "meta_bstar": 0.00081565252,
        "meta_mean_motion_dot": 1.476e-05,
        "meta_mean_motion_ddot": 0,
        "tle_line1": "1 29796U 99025CN  25337.11348692  .00001476  00000+0  81565-3 0  9997",
        "tle_line2": "2 29796  98.8658  29.0911 0051631 295.5759 117.9862 14.12298925969257"
      },
      "geometry": {
        "type": "Point",
        "coordinates": [
          43.295807470248704,
          -56.54948186801365
        ]
      }
    }
  ]
}